{"fetched_at":"2026-07-18T17:30:06.032Z","source":"https://celestrak.org/NORAD/elements/gp.php?NAME=LEGION&FORMAT=JSON","constellation":"maxar-legion","records":[{"OBJECT_NAME":"LEGION 1","OBJECT_ID":"2024-081A","EPOCH":"2026-07-18T05:36:24.377472","CLASSIFICATION_TYPE":"U","MEAN_MOTION":15.16855003,"ECCENTRICITY":0.00077815,"INCLINATION":97.5009,"RA_OF_ASC_NODE":276.7614,"ARG_OF_PERICENTER":257.0228,"MEAN_ANOMALY":103.0136,"EPHEMERIS_TYPE":0,"NORAD_CAT_ID":59625,"ELEMENT_SET_NO":999,"REV_AT_EPOCH":12224,"BSTAR":0.000091884203,"MEAN_MOTION_DOT":0.00001741,"MEAN_MOTION_DDOT":0},{"OBJECT_NAME":"LEGION 2","OBJECT_ID":"2024-081B","EPOCH":"2026-07-18T06:20:13.554528","CLASSIFICATION_TYPE":"U","MEAN_MOTION":15.16834309,"ECCENTRICITY":0.00104484,"INCLINATION":97.501,"RA_OF_ASC_NODE":276.8882,"ARG_OF_PERICENTER":221.7139,"MEAN_ANOMALY":138.3299,"EPHEMERIS_TYPE":0,"NORAD_CAT_ID":59626,"ELEMENT_SET_NO":999,"REV_AT_EPOCH":12225,"BSTAR":0.000095627334,"MEAN_MOTION_DOT":0.00001815,"MEAN_MOTION_DDOT":0},{"OBJECT_NAME":"LEGION 3","OBJECT_ID":"2024-146A","EPOCH":"2026-07-18T04:05:43.864512","CLASSIFICATION_TYPE":"U","MEAN_MOTION":15.15664771,"ECCENTRICITY":0.00079253,"INCLINATION":45.0015,"RA_OF_ASC_NODE":224.4397,"ARG_OF_PERICENTER":350.2066,"MEAN_ANOMALY":9.8657,"EPHEMERIS_TYPE":0,"NORAD_CAT_ID":60452,"ELEMENT_SET_NO":999,"REV_AT_EPOCH":10672,"BSTAR":0.000073354564,"MEAN_MOTION_DOT":0.00001155,"MEAN_MOTION_DDOT":0},{"OBJECT_NAME":"LEGION 4","OBJECT_ID":"2024-146B","EPOCH":"2026-07-18T07:15:05.742720","CLASSIFICATION_TYPE":"U","MEAN_MOTION":15.1569311,"ECCENTRICITY":0.00091026,"INCLINATION":45.0025,"RA_OF_ASC_NODE":315.6024,"ARG_OF_PERICENTER":133.008,"MEAN_ANOMALY":227.1563,"EPHEMERIS_TYPE":0,"NORAD_CAT_ID":60453,"ELEMENT_SET_NO":999,"REV_AT_EPOCH":10559,"BSTAR":0.000096132074,"MEAN_MOTION_DOT":0.00001598,"MEAN_MOTION_DDOT":0},{"OBJECT_NAME":"LEGION 5","OBJECT_ID":"2025-025A","EPOCH":"2026-07-17T20:10:46.744320","CLASSIFICATION_TYPE":"U","MEAN_MOTION":15.15709004,"ECCENTRICITY":0.00079959,"INCLINATION":45.0019,"RA_OF_ASC_NODE":137.033,"ARG_OF_PERICENTER":303.7651,"MEAN_ANOMALY":56.2465,"EPHEMERIS_TYPE":0,"NORAD_CAT_ID":62900,"ELEMENT_SET_NO":999,"REV_AT_EPOCH":7914,"BSTAR":0.00005722983,"MEAN_MOTION_DOT":0.00000844,"MEAN_MOTION_DDOT":0},{"OBJECT_NAME":"LEGION 6","OBJECT_ID":"2025-025B","EPOCH":"2026-07-17T23:19:22.027008","CLASSIFICATION_TYPE":"U","MEAN_MOTION":15.15699452,"ECCENTRICITY":0.00107199,"INCLINATION":45.0031,"RA_OF_ASC_NODE":45.4787,"ARG_OF_PERICENTER":290.9505,"MEAN_ANOMALY":69.0226,"EPHEMERIS_TYPE":0,"NORAD_CAT_ID":62901,"ELEMENT_SET_NO":999,"REV_AT_EPOCH":8030,"BSTAR":0.00010708739,"MEAN_MOTION_DOT":0.00001811,"MEAN_MOTION_DDOT":0}]}
